start=new Date('2022-08-25T00:00:00.000Z').valueOf();
sats=[{"APOAPSIS":"548.264","MEAN_MOTION_DDOT":"0.0000000000000","COUNTRY_CODE":"US","REF_FRAME":"TEME","BSTAR":"0.00000815000000","REV_AT_EPOCH":"7228","OBJECT_NAME":"STARLINK-2621","OBJECT_TYPE":"PAYLOAD","EPHEMERIS_TYPE":"0","RCS_SIZE":"LARGE","EPOCH":"2022-08-24T17:31:49.245312","PERIAPSIS":"546.152","INCLINATION":"53.0548","ELEMENT_SET_NO":"999","TIME_SYSTEM":"UTC","SEMIMAJOR_AXIS":"6925.343","TLE_LINE1":"1 48370U 21038T   22236.73043108 -.00000160  00000-0  81500-5 0  9994","NORAD_CAT_ID":"48370","LAUNCH_DATE":"2021-05-04","MEAN_ELEMENT_THEORY":"SGP4","MEAN_MOTION":"15.06401776","MEAN_MOTION_DOT":"-0.00000160","CENTER_NAME":"EARTH","DECAY_DATE":null,"CLASSIFICATION_TYPE":"U","FILE":"3546663","SITE":"AFETR","ECCENTRICITY":"0.00015250","GP_ID":"210932400","ARG_OF_PERICENTER":"83.6023","MEAN_ANOMALY":"276.5140","RA_OF_ASC_NODE":"35.9439","PERIOD":"95.592","TLE_LINE2":"2 48370  53.0548  35.9439 0001525  83.6023 276.5140 15.06401776 72288","OBJECT_ID":"2021-038T"},{"BSTAR":"0.00003205100000","REV_AT_EPOCH":"7230","OBJECT_NAME":"STARLINK-2589","OBJECT_TYPE":"PAYLOAD","EPHEMERIS_TYPE":"0","APOAPSIS":"548.200","MEAN_MOTION_DDOT":"0.0000000000000","COUNTRY_CODE":"US","REF_FRAME":"TEME","TIME_SYSTEM":"UTC","SEMIMAJOR_AXIS":"6925.382","TLE_LINE1":"1 48371U 21038U   22236.85944924  .00000196  00000-0  32051-4 0  9998","NORAD_CAT_ID":"48371","RCS_SIZE":"LARGE","EPOCH":"2022-08-24T20:37:36.414336","PERIAPSIS":"546.293","INCLINATION":"53.0563","ELEMENT_SET_NO":"999","CLASSIFICATION_TYPE":"U","FILE":"3546663","LAUNCH_DATE":"2021-05-04","MEAN_ELEMENT_THEORY":"SGP4","MEAN_MOTION":"15.06389179","MEAN_MOTION_DOT":"0.00000196","CENTER_NAME":"EARTH","DECAY_DATE":null,"PERIOD":"95.593","TLE_LINE2":"2 48371  53.0563  35.3750 0001377  86.0577 274.0569 15.06389179 72305","OBJECT_ID":"2021-038U","SITE":"AFETR","GP_ID":"210932651","ECCENTRICITY":"0.00013770","ARG_OF_PERICENTER":"86.0577","RA_OF_ASC_NODE":"35.3750","MEAN_ANOMALY":"274.0569"},{"INCLINATION":"53.0571","ELEMENT_SET_NO":"999","RCS_SIZE":"LARGE","PERIAPSIS":"546.272","EPOCH":"2022-08-24T20:32:17.333088","TLE_LINE1":"1 48372U 21038V   22236.85575617 -.00000440  00000-0 -10661-4 0  9995","SEMIMAJOR_AXIS":"6925.345","NORAD_CAT_ID":"48372","TIME_SYSTEM":"UTC","REF_FRAME":"TEME","MEAN_MOTION_DDOT":"0.0000000000000","APOAPSIS":"548.148","COUNTRY_CODE":"US","EPHEMERIS_TYPE":"0","OBJECT_TYPE":"PAYLOAD","BSTAR":"-0.00001066100000","REV_AT_EPOCH":"7230","OBJECT_NAME":"STARLINK-2572","RA_OF_ASC_NODE":"35.3891","MEAN_ANOMALY":"274.7204","ECCENTRICITY":"0.00013540","GP_ID":"210933902","SITE":"AFETR","ARG_OF_PERICENTER":"85.3940","TLE_LINE2":"2 48372  53.0571  35.3891 0001354  85.3940 274.7204 15.06401173 72304","PERIOD":"95.592","OBJECT_ID":"2021-038V","MEAN_MOTION_DOT":"-0.00000440","MEAN_MOTION":"15.06401173","DECAY_DATE":null,"CENTER_NAME":"EARTH","MEAN_ELEMENT_THEORY":"SGP4","LAUNCH_DATE":"2021-05-04","FILE":"3546663","CLASSIFICATION_TYPE":"U"},{"REV_AT_EPOCH":"7228","OBJECT_NAME":"STARLINK-2609","BSTAR":"0.00002227000000","EPHEMERIS_TYPE":"0","OBJECT_TYPE":"PAYLOAD","COUNTRY_CODE":"US","APOAPSIS":"548.284","MEAN_MOTION_DDOT":"0.0000000000000","REF_FRAME":"TEME","TIME_SYSTEM":"UTC","NORAD_CAT_ID":"48373","TLE_LINE1":"1 48373U 21038W   22236.71937856  .00000050  00000-0  22270-4 0  9992","SEMIMAJOR_AXIS":"6925.357","PERIAPSIS":"546.159","EPOCH":"2022-08-24T17:15:54.307584","RCS_SIZE":"LARGE","ELEMENT_SET_NO":"999","INCLINATION":"53.0556","FILE":"3546663","CLASSIFICATION_TYPE":"U","MEAN_ELEMENT_THEORY":"SGP4","LAUNCH_DATE":"2021-05-04","DECAY_DATE":null,"CENTER_NAME":"EARTH","MEAN_MOTION_DOT":"0.00000050","MEAN_MOTION":"15.06397310","OBJECT_ID":"2021-038W","TLE_LINE2":"2 48373  53.0556  35.9890 0001534  98.1183 261.9980 15.06397310 72287","PERIOD":"95.592","ARG_OF_PERICENTER":"98.1183","GP_ID":"210933653","ECCENTRICITY":"0.00015340","SITE":"AFETR","RA_OF_ASC_NODE":"35.9890","MEAN_ANOMALY":"261.9980"},{"SITE":"AFETR","ECCENTRICITY":"0.00011060","GP_ID":"210932900","ARG_OF_PERICENTER":"98.8277","MEAN_ANOMALY":"261.2838","RA_OF_ASC_NODE":"35.7026","PERIOD":"95.591","TLE_LINE2":"2 48374  53.0552  35.7026 0001106  98.8277 261.2838 15.06416781 72299","OBJECT_ID":"2021-038X","MEAN_ELEMENT_THEORY":"SGP4","LAUNCH_DATE":"2021-05-04","MEAN_MOTION":"15.06416781","MEAN_MOTION_DOT":"0.00005035","CENTER_NAME":"EARTH","DECAY_DATE":null,"CLASSIFICATION_TYPE":"U","FILE":"3546663","RCS_SIZE":"LARGE","EPOCH":"2022-08-24T18:44:44.886048","PERIAPSIS":"546.396","INCLINATION":"53.0552","ELEMENT_SET_NO":"999","TIME_SYSTEM":"UTC","SEMIMAJOR_AXIS":"6925.297","TLE_LINE1":"1 48374U 21038X   22236.78107507  .00005035  00000-0  35648-3 0  9992","NORAD_CAT_ID":"48374","APOAPSIS":"547.928","MEAN_MOTION_DDOT":"0.0000000000000","COUNTRY_CODE":"US","REF_FRAME":"TEME","BSTAR":"0.00035648000000","REV_AT_EPOCH":"7229","OBJECT_NAME":"STARLINK-2604","OBJECT_TYPE":"PAYLOAD","EPHEMERIS_TYPE":"0"},{"CLASSIFICATION_TYPE":"U","FILE":"3546350","LAUNCH_DATE":"2021-05-04","MEAN_ELEMENT_THEORY":"SGP4","MEAN_MOTION":"15.06401509","MEAN_MOTION_DOT":"0.00001330","CENTER_NAME":"EARTH","DECAY_DATE":null,"PERIOD":"95.592","TLE_LINE2":"2 48375  53.0553  37.2170 0001279  75.7507 284.3624 15.06401509 72245","OBJECT_ID":"2021-038Y","SITE":"AFETR","GP_ID":"210901049","ECCENTRICITY":"0.00012790","ARG_OF_PERICENTER":"75.7507","MEAN_ANOMALY":"284.3624","RA_OF_ASC_NODE":"37.2170","BSTAR":"0.00010814000000","OBJECT_NAME":"STARLINK-2603","REV_AT_EPOCH":"7224","OBJECT_TYPE":"PAYLOAD","EPHEMERIS_TYPE":"0","APOAPSIS":"548.095","MEAN_MOTION_DDOT":"0.0000000000000","COUNTRY_CODE":"US","REF_FRAME":"TEME","TIME_SYSTEM":"UTC","SEMIMAJOR_AXIS":"6925.344","TLE_LINE1":"1 48375U 21038Y   22236.44660949  .00001330  00000-0  10814-3 0  9992","NORAD_CAT_ID":"48375","RCS_SIZE":"LARGE","EPOCH":"2022-08-24T10:43:07.059936","PERIAPSIS":"546.323","INCLINATION":"53.0553","ELEMENT_SET_NO":"999"},{"NORAD_CAT_ID":"48376","SEMIMAJOR_AXIS":"6925.322","TLE_LINE1":"1 48376U 21038Z   22236.64196255  .00000869  00000-0  77180-4 0  9995","TIME_SYSTEM":"UTC","ELEMENT_SET_NO":"999","INCLINATION":"53.0559","EPOCH":"2022-08-24T15:24:25.564320","PERIAPSIS":"546.151","RCS_SIZE":"LARGE","OBJECT_TYPE":"PAYLOAD","EPHEMERIS_TYPE":"0","REV_AT_EPOCH":"7227","OBJECT_NAME":"STARLINK-2610","BSTAR":"0.00007718000000","REF_FRAME":"TEME","COUNTRY_CODE":"US","APOAPSIS":"548.224","MEAN_MOTION_DDOT":"0.0000000000000","OBJECT_ID":"2021-038Z","PERIOD":"95.592","TLE_LINE2":"2 48376  53.0559  36.3505 0001497 100.3967 259.7190 15.06408568 72270","RA_OF_ASC_NODE":"36.3505","MEAN_ANOMALY":"259.7190","ARG_OF_PERICENTER":"100.3967","SITE":"AFETR","GP_ID":"210933403","ECCENTRICITY":"0.00014970","CLASSIFICATION_TYPE":"U","FILE":"3546663","CENTER_NAME":"EARTH","DECAY_DATE":null,"MEAN_MOTION":"15.06408568","MEAN_MOTION_DOT":"0.00000869","LAUNCH_DATE":"2021-05-04","MEAN_ELEMENT_THEORY":"SGP4"},{"COUNTRY_CODE":"US","APOAPSIS":"548.149","MEAN_MOTION_DDOT":"0.0000000000000","REF_FRAME":"TEME","REV_AT_EPOCH":"7224","OBJECT_NAME":"STARLINK-2499","BSTAR":"0.00017139000000","OBJECT_TYPE":"PAYLOAD","EPHEMERIS_TYPE":"0","EPOCH":"2022-08-24T10:32:30.419808","PERIAPSIS":"546.284","RCS_SIZE":"LARGE","ELEMENT_SET_NO":"999","INCLINATION":"53.0546","TIME_SYSTEM":"UTC","NORAD_CAT_ID":"48377","SEMIMAJOR_AXIS":"6925.352","TLE_LINE1":"1 48377U 21038AA  22236.43924097  .00002272  00000-0  17139-3 0  9993","MEAN_ELEMENT_THEORY":"SGP4","LAUNCH_DATE":"2021-05-04","CENTER_NAME":"EARTH","DECAY_DATE":null,"MEAN_MOTION":"15.06399007","MEAN_MOTION_DOT":"0.00002272","CLASSIFICATION_TYPE":"U","FILE":"3546350","ARG_OF_PERICENTER":"84.7255","SITE":"AFETR","ECCENTRICITY":"0.00013460","GP_ID":"210902050","MEAN_ANOMALY":"275.3888","RA_OF_ASC_NODE":"37.2418","OBJECT_ID":"2021-038AA","PERIOD":"95.592","TLE_LINE2":"2 48377  53.0546  37.2418 0001346  84.7255 275.3888 15.06399007 72240"},{"CLASSIFICATION_TYPE":"U","FILE":"3546663","LAUNCH_DATE":"2021-05-04","MEAN_ELEMENT_THEORY":"SGP4","MEAN_MOTION":"15.06363793","MEAN_MOTION_DOT":"0.00007324","CENTER_NAME":"EARTH","DECAY_DATE":null,"PERIOD":"95.594","TLE_LINE2":"2 48378  53.0548  35.7894 0001518  78.9444 281.1715 15.06363793 72292","OBJECT_ID":"2021-038AB","SITE":"AFETR","ECCENTRICITY":"0.00015180","GP_ID":"210932401","ARG_OF_PERICENTER":"78.9444","RA_OF_ASC_NODE":"35.7894","MEAN_ANOMALY":"281.1715","BSTAR":"0.00051059000000","REV_AT_EPOCH":"7229","OBJECT_NAME":"STARLINK-2526","OBJECT_TYPE":"PAYLOAD","EPHEMERIS_TYPE":"0","APOAPSIS":"548.376","MEAN_MOTION_DDOT":"0.0000000000000","COUNTRY_CODE":"US","REF_FRAME":"TEME","TIME_SYSTEM":"UTC","SEMIMAJOR_AXIS":"6925.460","TLE_LINE1":"1 48378U 21038AB  22236.76729588  .00007324  00000-0  51059-3 0  9990","NORAD_CAT_ID":"48378","RCS_SIZE":"LARGE","EPOCH":"2022-08-24T18:24:54.364032","PERIAPSIS":"546.273","INCLINATION":"53.0548","ELEMENT_SET_NO":"999"},{"TLE_LINE2":"2 48379  53.0554  38.4757 0001194  91.7364 268.3762 15.06399876 72797","PERIOD":"95.592","OBJECT_ID":"2021-038AC","MEAN_ANOMALY":"268.3762","RA_OF_ASC_NODE":"38.4757","ECCENTRICITY":"0.00011940","GP_ID":"210868180","SITE":"AFETR","ARG_OF_PERICENTER":"91.7364","FILE":"3545842","CLASSIFICATION_TYPE":"U","MEAN_MOTION_DOT":"0.00002072","MEAN_MOTION":"15.06399876","DECAY_DATE":null,"CENTER_NAME":"EARTH","LAUNCH_DATE":"2021-05-04","MEAN_ELEMENT_THEORY":"SGP4","TLE_LINE1":"1 48379U 21038AC  22236.16647843  .00002072  00000-0  15796-3 0  9991","SEMIMAJOR_AXIS":"6925.349","NORAD_CAT_ID":"48379","TIME_SYSTEM":"UTC","INCLINATION":"53.0554","ELEMENT_SET_NO":"999","RCS_SIZE":"LARGE","PERIAPSIS":"546.387","EPOCH":"2022-08-24T03:59:43.736352","EPHEMERIS_TYPE":"0","OBJECT_TYPE":"PAYLOAD","BSTAR":"0.00015796000000","REV_AT_EPOCH":"7279","OBJECT_NAME":"STARLINK-2612","REF_FRAME":"TEME","MEAN_MOTION_DDOT":"0.0000000000000","APOAPSIS":"548.041","COUNTRY_CODE":"US"}];
